{
  "type": "FeatureCollection",
  "features": [
    {
      "type": "Feature",
      "properties": {
        "norad_id": 38157,
        "name": "FENGYUN 1C DEB",
        "group": "fengyun-1c-debris",
        "lat": -43.414790483068025,
        "lon": -103.55223981819046,
        "alt_km": 1022.5879318104626,
        "timestamp": "2025-12-06T18:50:10.458386+00:00",
        "meta_object_name": "FENGYUN 1C DEB",
        "meta_object_id": "1999-025ERE",
        "meta_epoch": "2025-12-04T11:18:50.768352",
        "meta_mean_motion": 14.21692278,
        "meta_eccentricity": 0.0273908,
        "meta_inclination": 99.6562,
        "meta_ra_of_asc_node": 244.6453,
        "meta_arg_of_pericenter": 137.5516,
        "meta_mean_anomaly": 224.7201,
        "meta_ephemeris_type": 0,
        "meta_classification_type": "U",
        "meta_norad_cat_id": 38157,
        "meta_element_set_no": 999,
        "meta_rev_at_epoch": 76130,
        "meta_bstar": 0.0011969,
        "meta_mean_motion_dot": 3.798e-05,
        "meta_mean_motion_ddot": 0,
        "tle_line1": "1 38157U 99025ERE 25338.47142093  .00003798  00000+0  11969-2 0  9994",
        "tle_line2": "2 38157  99.6562 244.6453 0273908 137.5516 224.7201 14.21692278761305"
      },
      "geometry": {
        "type": "Point",
        "coordinates": [
          -103.55223981819046,
          -43.414790483068025
        ]
      }
    },
    {
      "type": "Feature",
      "properties": {
        "norad_id": 38159,
        "name": "FENGYUN 1C DEB",
        "group": "fengyun-1c-debris",
        "lat": 54.51953492649572,
        "lon": -141.01503435387252,
        "alt_km": 854.7868060756728,
        "timestamp": "2025-12-06T18:50:10.458396+00:00",
        "meta_object_name": "FENGYUN 1C DEB",
        "meta_object_id": "1999-025ERG",
        "meta_epoch": "2025-12-04T22:05:20.152032",
        "meta_mean_motion": 14.03448484,
        "meta_eccentricity": 0.005704,
        "meta_inclination": 99.3156,
        "meta_ra_of_asc_node": 230.39,
        "meta_arg_of_pericenter": 2.347,
        "meta_mean_anomaly": 357.7952,
        "meta_ephemeris_type": 0,
        "meta_classification_type": "U",
        "meta_norad_cat_id": 38159,
        "meta_element_set_no": 999,
        "meta_rev_at_epoch": 83002,
        "meta_bstar": 0.0010527,
        "meta_mean_motion_dot": 1.625e-05,
        "meta_mean_motion_ddot": 0,
        "tle_line1": "1 38159U 99025ERG 25338.92037213  .00001625  00000+0  10527-2 0  9999",
        "tle_line2": "2 38159  99.3156 230.3900 0057040   2.3470 357.7952 14.03448484830021"
      },
      "geometry": {
        "type": "Point",
        "coordinates": [
          -141.01503435387252,
          54.51953492649572
        ]
      }
    },
    {
      "type": "Feature",
      "properties": {
        "norad_id": 38163,
        "name": "FENGYUN 1C DEB",
        "group": "fengyun-1c-debris",
        "lat": -73.3798863253995,
        "lon": 49.865589448254376,
        "alt_km": 830.9422118278435,
        "timestamp": "2025-12-06T18:50:10.458406+00:00",
        "meta_object_name": "FENGYUN 1C DEB",
        "meta_object_id": "1999-025ERL",
        "meta_epoch": "2025-12-04T21:04:40.965888",
        "meta_mean_motion": 14.05886533,
        "meta_eccentricity": 0.0075628,
        "meta_inclination": 99.1295,
        "meta_ra_of_asc_node": 15.3487,
        "meta_arg_of_pericenter": 264.2585,
        "meta_mean_anomaly": 94.9956,
        "meta_ephemeris_type": 0,
        "meta_classification_type": "U",
        "meta_norad_cat_id": 38163,
        "meta_element_set_no": 999,
        "meta_rev_at_epoch": 24431,
        "meta_bstar": 0.0013888,
        "meta_mean_motion_dot": 2.286e-05,
        "meta_mean_motion_ddot": 0,
        "tle_line1": "1 38163U 99025ERL 25338.87825192  .00002286  00000+0  13888-2 0  9996",
        "tle_line2": "2 38163  99.1295  15.3487 0075628 264.2585  94.9956 14.05886533244315"
      },
      "geometry": {
        "type": "Point",
        "coordinates": [
          49.865589448254376,
          -73.3798863253995
        ]
      }
    },
    {
      "type": "Feature",
      "properties": {
        "norad_id": 38166,
        "name": "FENGYUN 1C DEB",
        "group": "fengyun-1c-debris",
        "lat": -11.704954014622754,
        "lon": 85.49873525422512,
        "alt_km": 783.1120508551785,
        "timestamp": "2025-12-06T18:50:10.458416+00:00",
        "meta_object_name": "FENGYUN 1C DEB",
        "meta_object_id": "1999-025ERP",
        "meta_epoch": "2025-12-06T00:25:47.622720",
        "meta_mean_motion": 14.30803528,
        "meta_eccentricity": 0.00530343,
        "meta_inclination": 99.0789,
        "meta_ra_of_asc_node": 82.7998,
        "meta_arg_of_pericenter": 65.2364,
        "meta_mean_anomaly": 295.4323,
        "meta_ephemeris_type": 0,
        "meta_classification_type": "U",
        "meta_norad_cat_id": 38166,
        "meta_element_set_no": 999,
        "meta_rev_at_epoch": 63676,
        "meta_bstar": 0.0042389373,
        "meta_mean_motion_dot": 0.00011252,
        "meta_mean_motion_ddot": 0,
        "tle_line1": "1 38166U 99025ERP 25340.01791230  .00011252  00000+0  42389-2 0  9994",
        "tle_line2": "2 38166  99.0789  82.7998 0053034  65.2364 295.4323 14.30803528636762"
      },
      "geometry": {
        "type": "Point",
        "coordinates": [
          85.49873525422512,
          -11.704954014622754
        ]
      }
    },
    {
      "type": "Feature",
      "properties": {
        "norad_id": 38169,
        "name": "FENGYUN 1C DEB",
        "group": "fengyun-1c-debris",
        "lat": -18.421993376372487,
        "lon": -42.58726463180433,
        "alt_km": 667.2035206643995,
        "timestamp": "2025-12-06T18:50:10.458425+00:00",
        "meta_object_name": "FENGYUN 1C DEB",
        "meta_object_id": "1999-025ERS",
        "meta_epoch": "2025-11-22T03:51:43.920000",
        "meta_mean_motion": 14.70462609,
        "meta_eccentricity": 0.00311315,
        "meta_inclination": 98.9783,
        "meta_ra_of_asc_node": 298.2991,
        "meta_arg_of_pericenter": 127.7379,
        "meta_mean_anomaly": 232.6652,
        "meta_ephemeris_type": 0,
        "meta_classification_type": "U",
        "meta_norad_cat_id": 38169,
        "meta_element_set_no": 999,
        "meta_rev_at_epoch": 60966,
        "meta_bstar": 0.0026738914,
        "meta_mean_motion_dot": 0.00016302,
        "meta_mean_motion_ddot": 0,
        "tle_line1": "1 38169U 99025ERS 25326.16092500  .00016302  00000+0  26739-2 0  9993",
        "tle_line2": "2 38169  98.9783 298.2991 0031131 127.7379 232.6652 14.70462609609660"
      },
      "geometry": {
        "type": "Point",
        "coordinates": [
          -42.58726463180433,
          -18.421993376372487
        ]
      }
    },
    {
      "type": "Feature",
      "properties": {
        "norad_id": 38173,
        "name": "FENGYUN 1C DEB",
        "group": "fengyun-1c-debris",
        "lat": -52.0360711044539,
        "lon": -107.55910005167343,
        "alt_km": 890.7473547421641,
        "timestamp": "2025-12-06T18:50:10.458435+00:00",
        "meta_object_name": "FENGYUN 1C DEB",
        "meta_object_id": "1999-025ERW",
        "meta_epoch": "2025-11-24T11:18:51.497568",
        "meta_mean_motion": 14.37024249,
        "meta_eccentricity": 0.01622994,
        "meta_inclination": 98.9991,
        "meta_ra_of_asc_node": 227.8463,
        "meta_arg_of_pericenter": 166.3393,
        "meta_mean_anomaly": 194.2263,
        "meta_ephemeris_type": 0,
        "meta_classification_type": "U",
        "meta_norad_cat_id": 38173,
        "meta_element_set_no": 999,
        "meta_rev_at_epoch": 60381,
        "meta_bstar": 0.00095115,
        "meta_mean_motion_dot": 3.231e-05,
        "meta_mean_motion_ddot": 0,
        "tle_line1": "1 38173U 99025ERW 25328.47142937  .00003231  00000+0  95115-3 0  9996",
        "tle_line2": "2 38173  98.9991 227.8463 0162299 166.3393 194.2263 14.37024249603812"
      },
      "geometry": {
        "type": "Point",
        "coordinates": [
          -107.55910005167343,
          -52.0360711044539
        ]
      }
    },
    {
      "type": "Feature",
      "properties": {
        "norad_id": 38491,
        "name": "FENGYUN 1C DEB",
        "group": "fengyun-1c-debris",
        "lat": -66.98057104175741,
        "lon": 8.90234998289924,
        "alt_km": 971.0951507436066,
        "timestamp": "2025-12-06T18:50:10.458445+00:00",
        "meta_object_name": "FENGYUN 1C DEB",
        "meta_object_id": "1999-025ESA",
        "meta_epoch": "2025-11-07T18:37:17.530176",
        "meta_mean_motion": 13.96213514,
        "meta_eccentricity": 0.02268827,
        "meta_inclination": 98.9363,
        "meta_ra_of_asc_node": 318.985,
        "meta_arg_of_pericenter": 122.5823,
        "meta_mean_anomaly": 239.7468,
        "meta_ephemeris_type": 0,
        "meta_classification_type": "U",
        "meta_norad_cat_id": 38491,
        "meta_element_set_no": 999,
        "meta_rev_at_epoch": 65972,
        "meta_bstar": 0.00032180703,
        "meta_mean_motion_dot": 5.09e-06,
        "meta_mean_motion_ddot": 0,
        "tle_line1": "1 38491U 99025ESA 25311.77589734  .00000509  00000+0  32181-3 0  9993",
        "tle_line2": "2 38491  98.9363 318.9850 0226882 122.5823 239.7468 13.96213514659723"
      },
      "geometry": {
        "type": "Point",
        "coordinates": [
          8.90234998289924,
          -66.98057104175741
        ]
      }
    }
  ]
}